[{"OBJECT_NAME":"PRAETORIAN SDA_621","OBJECT_ID":"2025-203V","EPOCH":"2026-03-09T14:20:07.156320","MEAN_MOTION":13.83787478,"ECCENTRICITY":0.0008673,"INCLINATION":81.2989,"RA_OF_ASC_NODE":102.9072,"ARG_OF_PERICENTER":96.3239,"MEAN_ANOMALY":263.8905,"EPHEMERIS_TYPE":0,"CLASSIFICATION_TYPE":"U","NORAD_CAT_ID":65584,"ELEMENT_SET_NO":999,"REV_AT_EPOCH":2492,"BSTAR":5.4754e-5,"MEAN_MOTION_DOT":7.3e-7,"MEAN_MOTION_DDOT":0},{"OBJECT_NAME":"FENGYUN 1C DEB","OBJECT_ID":"1999-025CMV","EPOCH":"2026-03-03T05:45:58.279104","MEAN_MOTION":14.12086175,"ECCENTRICITY":0.01525449,"INCLINATION":99.2111,"RA_OF_ASC_NODE":216.9099,"ARG_OF_PERICENTER":138.7078,"MEAN_ANOMALY":345.2274,"EPHEMERIS_TYPE":0,"CLASSIFICATION_TYPE":"U","NORAD_CAT_ID":31944,"ELEMENT_SET_NO":999,"REV_AT_EPOCH":64046,"BSTAR":0.001137656,"MEAN_MOTION_DOT":2.283e-5,"MEAN_MOTION_DDOT":0}]
